NORAD_CAT_ID,OBJECT_NAME,OBJECT_TYPE,EPOCH,MEAN_MOTION,ECCENTRICITY,INCLINATION,RA_OF_ASC_NODE,ARG_OF_PERICENTER,MEAN_ANOMALY,BSTAR,MEAN_MOTION_DOT,MEAN_MOTION_DDOT,TLE_LINE0,TLE_LINE1,TLE_LINE2,SEMIMAJOR_AXIS,PERIOD,APOGEE,PERIGEE,DECAYED
51736.0,STARLINK-3447,PAYLOAD,2022-05-02 22:00:01,15.31218097,0.0001781,53.2173,155.5818,40.7489,156.2717,-0.02531,-0.00714299,0.0,0 STARLINK-3447,1 51736U 22016Y   22122.91668981 -.00714299  00000-0 -25310-1 0  9996,2 51736  53.2173 155.5818 0001781  40.7489 156.2717 15.31218097  3679,6850.314,94.043,473.399,470.959,0.0
51736.0,STARLINK-3447,PAYLOAD,2022-05-03 14:00:01,15.30199149,0.0001757,53.2172,152.4851,40.2546,232.44,-0.026175,-0.00715466,0.0,0 STARLINK-3447,1 51736U 22016Y   22123.58334491 -.00715466  00000-0 -26175-1 0  9993,2 51736  53.2172 152.4851 0001757  40.2546 232.4400 15.30199149 12405,6853.355,94.105,476.424,474.015,0.0
51736.0,STARLINK-3447,PAYLOAD,2022-05-03 22:00:00,15.29621101,0.0001698,53.2166,150.9375,33.3969,276.2814,-0.022854,-0.00620275,0.0,0 STARLINK-3447,1 51736U 22016Y   22123.91667824 -.00620275  00000-0 -22854-1 0  9992,2 51736  53.2166 150.9375 0001698  33.3969 276.2814 15.29621101  3634,6855.081,94.141,478.11,475.782,0.0
51736.0,STARLINK-3447,PAYLOAD,2022-05-04 14:00:01,15.2854416,0.0001773,53.216,147.8478,39.4289,342.3527,-0.021211,-0.00554783,0.0,0 STARLINK-3447,1 51736U 22016Y   22124.58334491 -.00554783  00000-0 -21211-1 0  9993,2 51736  53.2160 147.8478 0001773  39.4289 342.3527 15.28544160 12558,6858.301,94.207,481.382,478.95,0.0
51736.0,STARLINK-3447,PAYLOAD,2022-05-04 20:00:01,15.28287705,0.0001696999999999,53.2175,146.6869,37.6249,280.539,-0.027854,-0.00725763,0.0,0 STARLINK-3447,1 51736U 22016Y   22124.83335648 -.00725763  00000-0 -27854-1 0  9993,2 51736  53.2175 146.6869 0001697  37.6249 280.5390 15.28287705 12590,6859.068,94.223,482.097,479.769,0.0
51736.0,STARLINK-3447,PAYLOAD,2022-05-04 22:00:01,15.28158022,0.0001746,53.2173,146.3006,33.6972,23.1886,-0.027832,-0.00722538,0.0,0 STARLINK-3447,1 51736U 22016Y   22124.91668981 -.00722538  00000-0 -27832-1 0  9994,2 51736  53.2173 146.3006 0001746  33.6972  23.1886 15.28158022  3682,6859.456,94.231,482.518,480.12300000000016,0.0
51736.0,STARLINK-3447,PAYLOAD,2022-05-05 14:00:01,15.27049189,0.0001821,53.2159,143.2197,35.1097,90.1409,-0.023515,-0.00591622,0.0,0 STARLINK-3447,1 51736U 22016Y   22125.58334491 -.00591622  00000-0 -23515-1 0  9996,2 51736  53.2159 143.2197 0001821  35.1097  90.1409 15.27049189  3634,6862.776,94.3,485.891,483.391,0.0
51736.0,STARLINK-3447,PAYLOAD,2022-05-05 22:00:00,15.26542307,0.0001938,53.2163,141.678,33.6861,124.8378,-0.024094,-0.00596572,0.0,0 STARLINK-3447,1 51736U 22016Y   22125.91667824 -.00596572  00000-0 -24094-1 0  9994,2 51736  53.2163 141.6780 0001938  33.6861 124.8378 15.26542307 12763,6864.295,94.331,487.49,484.83,0.0
51736.0,STARLINK-3447,PAYLOAD,2022-05-06 08:00:01,15.25991836,0.0001645,53.2171,139.7551,48.9416,240.2685,-0.029787,-0.00723716,0.0,0 STARLINK-3447,1 51736U 22016Y   22126.33334491 -.00723716  00000-0 -29787-1 0  9998,2 51736  53.2171 139.7551 0001645  48.9416 240.2685 15.25991836 12821,6865.946,94.365,488.94,486.681,0.0
51736.0,STARLINK-3447,PAYLOAD,2022-05-06 14:00:01,15.25610586,0.0001714,53.2171,138.601,46.726000000000006,176.4632,-0.030242,-0.00726169,0.0,0 STARLINK-3447,1 51736U 22016Y   22126.58334491 -.00726169  00000-0 -30242-1 0  9998,2 51736  53.2171 138.6010 0001714  46.7260 176.4632 15.25610586  3674,6867.09,94.388,490.132,487.778,0.0
51736.0,STARLINK-3447,PAYLOAD,2022-05-07 14:00:01,15.24081689,0.0001602,53.2172,133.9945,44.9447,270.7122,-0.031747,-0.00727863,0.0,0 STARLINK-3447,1 51736U 22016Y   22127.58334491 -.00727863  00000-0 -31747-1 0  9992,2 51736  53.2172 133.9945 0001602  44.9447 270.7122 15.24081689 13019,6871.681,94.483,494.647,492.445,0.0
51736.0,STARLINK-3447,PAYLOAD,2022-05-07 22:00:00,15.23567305,0.0001584,53.2173,132.46,42.5293,302.7272,-0.031902,-0.00720743,0.0,0 STARLINK-3447,1 51736U 22016Y   22127.91667824 -.00720743  00000-0 -31902-1 0  9991,2 51736  53.2173 132.4600 0001584  42.5293 302.7272 15.23567305  3658,6873.228,94.515,496.182,494.004,0.0
51736.0,STARLINK-3447,PAYLOAD,2022-05-08 14:00:01,15.22550366,0.0001609,53.2172,129.3989,41.4474,1.1628,-0.0331,-0.00725172,0.0,0 STARLINK-3447,1 51736U 22016Y   22128.58334491 -.00725172  00000-0 -33100-1 0  9999,2 51736  53.2172 129.3989 0001609  41.4474   1.1628 15.22550366  3641,6876.288000000001,94.578,499.259,497.047,0.0
51736.0,STARLINK-3447,PAYLOAD,2022-05-08 20:00:01,15.22164799,0.0001643,53.2174,128.2504,40.4182,293.0705,-0.033225,-0.0072,0.0,0 STARLINK-3447,1 51736U 22016Y   22128.83334491 -.00720000  00000-0 -33225-1 0  9990,2 51736  53.2174 128.2504 0001643  40.4182 293.0705 15.22164799 13209,6877.449000000001,94.602,500.444,498.184,0.0
51736.0,STARLINK-3447,PAYLOAD,2022-05-08 22:00:00,15.22038206,0.0001751999999999,53.2174,127.8679,36.9184,33.4524,-0.033456,-0.00722151,0.0,0 STARLINK-3447,1 51736U 22016Y   22128.91667824 -.00722151  00000-0 -33456-1 0  9993,2 51736  53.2174 127.8679 0001752  36.9184  33.4524 15.22038206  3667,6877.831,94.61,500.901,498.491,0.0
51736.0,STARLINK-3447,PAYLOAD,2022-05-09 14:00:01,15.21019108,0.0001631999999999,53.2172,124.8139,45.8783,78.2337,-0.03451,-0.00722757,0.0,0 STARLINK-3447,1 51736U 22016Y   22129.58335648 -.00722757  00000-0 -34510-1 0  9997,2 51736  53.2172 124.8139 0001632  45.8783  78.2337 15.21019108  3662,6880.901999999999,94.673,503.89,501.644,0.0
51736.0,STARLINK-3447,PAYLOAD,2022-05-09 22:00:00,15.20510095,0.000179,53.2174,123.2867,42.6616,107.3078,-0.035143,-0.00724943,0.0,0 STARLINK-3447,1 51736U 22016Y   22129.91667824 -.00724943  00000-0 -35143-1 0  9990,2 51736  53.2174 123.2867 0001790  42.6616 107.3078 15.20510095  3655,6882.438,94.705,505.535,503.071,0.0
51736.0,STARLINK-3447,PAYLOAD,2022-05-10 00:00:00,15.2038229,0.0001736,53.2176,122.9056,47.1731,199.1803,-0.035176,-0.00723036,0.0,0 STARLINK-3447,1 51736U 22016Y   22130.00001157 -.00723036  00000-0 -35176-1 0  9991,2 51736  53.2176 122.9056 0001736  47.1731 199.1803 15.20382290 13381,6882.824000000001,94.713,505.883,503.494,0.0
51736.0,STARLINK-3447,PAYLOAD,2022-05-10 14:00:01,15.19489661,0.0001734,53.2173,120.2397,46.7612,153.2101,-0.036144,-0.00723727,0.0,0 STARLINK-3447,1 51736U 22016Y   22130.58334491 -.00723727  00000-0 -36144-1 0  9997,2 51736  53.2173 120.2397 0001734  46.7612 153.2101 15.19489661  3657,6885.519,94.769,508.578,506.19,0.0
51736.0,STARLINK-3447,PAYLOAD,2022-05-10 18:00:00,15.19234427,0.0001654,53.2175,119.4776,39.4811,352.6084,-0.0364,-0.00723457,0.0,0 STARLINK-3447,1 51736U 22016Y   22130.75001157 -.00723457  00000-0 -36400-1 0  9991,2 51736  53.2175 119.4776 0001654  39.4811 352.6084 15.19234427  3632,6886.29,94.785,509.294,507.016,0.0
51736.0,STARLINK-3447,PAYLOAD,2022-05-11 22:00:00,15.17448507,0.0001631999999999,53.2175,114.1562,47.5012,245.1223,-0.038216,-0.00721362,0.0,0 STARLINK-3447,1 51736U 22016Y   22131.91667824 -.00721362  00000-0 -38216-1 0  9999,2 51736  53.2175 114.1562 0001632  47.5012 245.1223 15.17448507 13676,6891.691999999999,94.896,514.682,512.432,0.0
51736.0,STARLINK-3447,PAYLOAD,2022-05-12 14:00:01,15.16430865,0.0001598,53.2173,111.1234,44.8779,290.3933,-0.039618,-0.00725915,0.0,0 STARLINK-3447,1 51736U 22016Y   22132.58334491 -.00725915  00000-0 -39618-1 0  9999,2 51736  53.2173 111.1234 0001598  44.8779 290.3933 15.16430865  1302,6894.775,94.96,517.742,515.538,0.0
51736.0,STARLINK-3447,PAYLOAD,2022-05-12 22:00:00,15.15917795,0.0001622,53.2175,109.6073,44.2005,311.4773,-0.039839,-0.00719759,0.0,0 STARLINK-3447,1 51736U 22016Y   22132.91667824 -.00719759  00000-0 -39839-1 0  9999,2 51736  53.2175 109.6073 0001622  44.2005 311.4773 15.15917795  1309,6896.331,94.992,519.314,517.077,0.0
51736.0,STARLINK-3447,PAYLOAD,2022-05-13 06:00:00,15.15411001,0.0001935,53.2174,108.0952,34.1678,341.3004,-0.04078,-0.00725772,0.0,0 STARLINK-3447,1 51736U 22016Y   22133.25001157 -.00725772  00000-0 -40780-1 0  9997,2 51736  53.2174 108.0952 0001935  34.1678 341.3004 15.15411001 13871,6897.868,95.024,521.068,518.398,0.0
51736.0,STARLINK-3447,PAYLOAD,2022-05-13 14:00:01,15.14900273,0.0001608,53.2174,106.5814,42.9387,351.7101,-0.041308,-0.00724597,0.0,0 STARLINK-3447,1 51736U 22016Y   22133.58334491 -.00724597  00000-0 -41308-1 0  9994,2 51736  53.2174 106.5814 0001608  42.9387 351.7101 15.14900273  1303,6899.418000000002,95.056,522.393,520.174,0.0
51736.0,STARLINK-3447,PAYLOAD,2022-05-13 22:00:00,15.14388063,0.00016,53.2174,105.0689,45.6001,7.6166,-0.041621,-0.00719881,0.0,0 STARLINK-3447,1 51736U 22016Y   22133.91667824 -.00719881  00000-0 -41621-1 0  9998,2 51736  53.2174 105.0689 0001600  45.6001   7.6166 15.14388063  1307,6900.974,95.088,523.943,521.735,0.0
51736.0,STARLINK-3447,PAYLOAD,2022-05-14 14:00:01,15.13369728,0.0001767,53.2173,102.05,39.9731,48.5382,-0.043054,-0.00723295,0.0,0 STARLINK-3447,1 51736U 22016Y   22134.58334491 -.00723295  00000-0 -43054-1 0  9999,2 51736  53.2173 102.0500 0001767  39.9731  48.5382 15.13369728 14084,6904.069,95.152,527.154,524.714,0.0
51736.0,STARLINK-3447,PAYLOAD,2022-05-14 22:00:00,15.12858813,0.0001973,53.2174,100.5411,35.4854,69.7551,-0.043529,-0.00721017,0.0,0 STARLINK-3447,1 51736U 22016Y   22134.91667824 -.00721017  00000-0 -43529-1 0  9992,2 51736  53.2174 100.5411 0001973  35.4854  69.7551 15.12858813  1306,6905.624,95.184,528.851,526.126,0.0
51736.0,STARLINK-3447,PAYLOAD,2022-05-15 14:00:01,15.11839663,0.0001791,53.2173,97.5292,43.6267,93.2949,-0.044914,-0.00722838,0.0,0 STARLINK-3447,1 51736U 22016Y   22135.58335648 -.00722838  00000-0 -44914-1 0  9993,2 51736  53.2173  97.5292 0001791  43.6267  93.2949 15.11839663 14234,6908.727,95.248,531.8290000000002,529.354,0.0
